[{"OBJECT_NAME":"STARLINK-4189","OBJECT_ID":"2022-062Z","EPOCH":"2026-03-09T11:51:54.504576","MEAN_MOTION":15.088298,"ECCENTRICITY":0.0001274,"INCLINATION":53.2173,"RA_OF_ASC_NODE":24.9711,"ARG_OF_PERICENTER":102.4564,"MEAN_ANOMALY":257.6571,"EPHEMERIS_TYPE":0,"CLASSIFICATION_TYPE":"U","NORAD_CAT_ID":52853,"ELEMENT_SET_NO":999,"REV_AT_EPOCH":20589,"BSTAR":5.0514e-5,"MEAN_MOTION_DOT":5.16e-6,"MEAN_MOTION_DDOT":0},{"OBJECT_NAME":"PSLV DEB","OBJECT_ID":"2001-049PR","EPOCH":"2026-03-09T15:06:31.993344","MEAN_MOTION":15.1271322,"ECCENTRICITY":0.0041907,"INCLINATION":98.4927,"RA_OF_ASC_NODE":1.3381,"ARG_OF_PERICENTER":112.6989,"MEAN_ANOMALY":247.8677,"EPHEMERIS_TYPE":0,"CLASSIFICATION_TYPE":"U","NORAD_CAT_ID":34221,"ELEMENT_SET_NO":999,"REV_AT_EPOCH":29932,"BSTAR":0.00024868,"MEAN_MOTION_DOT":4.366e-5,"MEAN_MOTION_DDOT":0}]
